[{"OBJECT_NAME":"SL-16 R/B","OBJECT_ID":"1993-059B","EPOCH":"2026-03-15T06:20:58.657056","MEAN_MOTION":14.17231741,"ECCENTRICITY":0.00182052,"INCLINATION":70.993,"RA_OF_ASC_NODE":359.3708,"ARG_OF_PERICENTER":208.3331,"MEAN_ANOMALY":151.6804,"EPHEMERIS_TYPE":0,"CLASSIFICATION_TYPE":"U","NORAD_CAT_ID":22803,"ELEMENT_SET_NO":999,"REV_AT_EPOCH":68032,"BSTAR":7.7432773e-5,"MEAN_MOTION_DOT":1.09e-6,"MEAN_MOTION_DDOT":0},{"OBJECT_NAME":"ARIANE 40 R/B","OBJECT_ID":"1993-061H","EPOCH":"2026-03-15T05:09:51.359328","MEAN_MOTION":14.32864044,"ECCENTRICITY":0.00095672,"INCLINATION":98.4905,"RA_OF_ASC_NODE":142.9935,"ARG_OF_PERICENTER":266.8484,"MEAN_ANOMALY":93.1606,"EPHEMERIS_TYPE":0,"CLASSIFICATION_TYPE":"U","NORAD_CAT_ID":22830,"ELEMENT_SET_NO":999,"REV_AT_EPOCH":69489,"BSTAR":9.1898266e-5,"MEAN_MOTION_DOT":2.08e-6,"MEAN_MOTION_DDOT":0},{"OBJECT_NAME":"COSMOS 2278","OBJECT_ID":"1994-023A","EPOCH":"2026-03-15T06:08:03.522912","MEAN_MOTION":14.14379581,"ECCENTRICITY":0.00084407,"INCLINATION":71.0548,"RA_OF_ASC_NODE":163.4539,"ARG_OF_PERICENTER":3.248,"MEAN_ANOMALY":356.8696,"EPHEMERIS_TYPE":0,"CLASSIFICATION_TYPE":"U","NORAD_CAT_ID":23087,"ELEMENT_SET_NO":999,"REV_AT_EPOCH":64559,"BSTAR":-2.100902e-5,"MEAN_MOTION_DOT":-8.7e-7,"MEAN_MOTION_DDOT":0},{"OBJECT_NAME":"SL-16 R/B","OBJECT_ID":"1994-023B","EPOCH":"2026-03-15T05:29:34.923552","MEAN_MOTION":14.15010198,"ECCENTRICITY":0.00056414,"INCLINATION":70.9985,"RA_OF_ASC_NODE":59.2525,"ARG_OF_PERICENTER":280.1567,"MEAN_ANOMALY":79.8919,"EPHEMERIS_TYPE":0,"CLASSIFICATION_TYPE":"U","NORAD_CAT_ID":23088,"ELEMENT_SET_NO":999,"REV_AT_EPOCH":64687,"BSTAR":-5.4803313e-5,"MEAN_MOTION_DOT":-1.54e-6,"MEAN_MOTION_DDOT":0},{"OBJECT_NAME":"SL-16 R/B","OBJECT_ID":"1994-074B","EPOCH":"2026-03-15T03:25:25.374720","MEAN_MOTION":14.79415046,"ECCENTRICITY":0.00061746,"INCLINATION":97.7101,"RA_OF_ASC_NODE":104.7396,"ARG_OF_PERICENTER":191.2631,"MEAN_ANOMALY":261.8911,"EPHEMERIS_TYPE":0,"CLASSIFICATION_TYPE":"U","NORAD_CAT_ID":23343,"ELEMENT_SET_NO":999,"REV_AT_EPOCH":68805,"BSTAR":7.8864591e-5,"MEAN_MOTION_DOT":5.39e-6,"MEAN_MOTION_DDOT":0},{"OBJECT_NAME":"SL-16 R/B","OBJECT_ID":"1994-077B","EPOCH":"2026-03-15T03:18:16.143840","MEAN_MOTION":14.15562839,"ECCENTRICITY":0.00027823,"INCLINATION":70.9852,"RA_OF_ASC_NODE":341.0289,"ARG_OF_PERICENTER":205.3386,"MEAN_ANOMALY":154.76,"EPHEMERIS_TYPE":0,"CLASSIFICATION_TYPE":"U","NORAD_CAT_ID":23405,"ELEMENT_SET_NO":999,"REV_AT_EPOCH":61700,"BSTAR":0.00014772734,"MEAN_MOTION_DOT":2.41e-6,"MEAN_MOTION_DDOT":0},{"OBJECT_NAME":"ARIANE 40+ R/B","OBJECT_ID":"1995-021B","EPOCH":"2026-03-15T04:00:07.620768","MEAN_MOTION":14.39776848,"ECCENTRICITY":0.00078307,"INCLINATION":98.4486,"RA_OF_ASC_NODE":145.575,"ARG_OF_PERICENTER":122.0875,"MEAN_ANOMALY":292.7605,"EPHEMERIS_TYPE":0,"CLASSIFICATION_TYPE":"U","NORAD_CAT_ID":23561,"ELEMENT_SET_NO":999,"REV_AT_EPOCH":62003,"BSTAR":0.00011597777,"MEAN_MOTION_DOT":3.2e-6,"MEAN_MOTION_DDOT":0},{"OBJECT_NAME":"SL-16 R/B","OBJECT_ID":"1995-058B","EPOCH":"2026-03-15T06:52:14.193696","MEAN_MOTION":14.15499061,"ECCENTRICITY":0.00105631,"INCLINATION":71.0224,"RA_OF_ASC_NODE":168.5058,"ARG_OF_PERICENTER":115.6521,"MEAN_ANOMALY":244.5695,"EPHEMERIS_TYPE":0,"CLASSIFICATION_TYPE":"U","NORAD_CAT_ID":23705,"ELEMENT_SET_NO":999,"REV_AT_EPOCH":56864,"BSTAR":0.00014194606,"MEAN_MOTION_DOT":2.3e-6,"MEAN_MOTION_DDOT":0},{"OBJECT_NAME":"SL-16 R/B","OBJECT_ID":"1996-051B","EPOCH":"2026-03-15T06:21:47.004768","MEAN_MOTION":14.12417174,"ECCENTRICITY":0.00146113,"INCLINATION":70.7601,"RA_OF_ASC_NODE":163.4386,"ARG_OF_PERICENTER":139.4048,"MEAN_ANOMALY":220.8164,"EPHEMERIS_TYPE":0,"CLASSIFICATION_TYPE":"U","NORAD_CAT_ID":24298,"ELEMENT_SET_NO":999,"REV_AT_EPOCH":52243,"BSTAR":6.4245358e-5,"MEAN_MOTION_DOT":6.9e-7,"MEAN_MOTION_DDOT":0},{"OBJECT_NAME":"ORBVIEW 2 (SEASTAR)","OBJECT_ID":"1997-037A","EPOCH":"2026-03-15T04:52:32.390688","MEAN_MOTION":14.3549923,"ECCENTRICITY":0.00029579,"INCLINATION":98.8576,"RA_OF_ASC_NODE":238.6612,"ARG_OF_PERICENTER":60.6949,"MEAN_ANOMALY":299.453,"EPHEMERIS_TYPE":0,"CLASSIFICATION_TYPE":"U","NORAD_CAT_ID":24883,"ELEMENT_SET_NO":999,"REV_AT_EPOCH":50926,"BSTAR":0.00012064197,"MEAN_MOTION_DOT":3.0e-6,"MEAN_MOTION_DDOT":0},{"OBJECT_NAME":"SL-16 R/B","OBJECT_ID":"1998-043G","EPOCH":"2026-03-15T03:13:12.470304","MEAN_MOTION":14.26051124,"ECCENTRICITY":0.00099405,"INCLINATION":98.8261,"RA_OF_ASC_NODE":27.5364,"ARG_OF_PERICENTER":5.1582,"MEAN_ANOMALY":354.9698,"EPHEMERIS_TYPE":0,"CLASSIFICATION_TYPE":"U","NORAD_CAT_ID":25400,"ELEMENT_SET_NO":999,"REV_AT_EPOCH":43976,"BSTAR":4.5639723e-5,"MEAN_MOTION_DOT":6.4e-7,"MEAN_MOTION_DDOT":0},{"OBJECT_NAME":"SL-16 R/B","OBJECT_ID":"1998-045B","EPOCH":"2026-03-14T17:30:19.493856","MEAN_MOTION":14.16192942,"ECCENTRICITY":0.00070622,"INCLINATION":71.012,"RA_OF_ASC_NODE":170.9764,"ARG_OF_PERICENTER":0.3412,"MEAN_ANOMALY":359.7715,"EPHEMERIS_TYPE":0,"CLASSIFICATION_TYPE":"U","NORAD_CAT_ID":25407,"ELEMENT_SET_NO":999,"REV_AT_EPOCH":42781,"BSTAR":0.00017702279,"MEAN_MOTION_DOT":3.03e-6,"MEAN_MOTION_DDOT":0},{"OBJECT_NAME":"ISS (ZARYA)","OBJECT_ID":"1998-067A","EPOCH":"2026-03-15T04:37:08.870592","MEAN_MOTION":15.48288531,"ECCENTRICITY":0.00063636,"INCLINATION":51.633,"RA_OF_ASC_NODE":45.1519,"ARG_OF_PERICENTER":192.7288,"MEAN_ANOMALY":167.354,"EPHEMERIS_TYPE":0,"CLASSIFICATION_TYPE":"U","NORAD_CAT_ID":25544,"ELEMENT_SET_NO":999,"REV_AT_EPOCH":55718,"BSTAR":0.0001887181,"MEAN_MOTION_DOT":9.711e-5,"MEAN_MOTION_DDOT":0},{"OBJECT_NAME":"CZ-4B R/B","OBJECT_ID":"1999-025C","EPOCH":"2026-03-15T02:18:58.044960","MEAN_MOTION":14.1826653,"ECCENTRICITY":0.00364657,"INCLINATION":98.6615,"RA_OF_ASC_NODE":118.2497,"ARG_OF_PERICENTER":330.8949,"MEAN_ANOMALY":84.2904,"EPHEMERIS_TYPE":0,"CLASSIFICATION_TYPE":"U","NORAD_CAT_ID":25732,"ELEMENT_SET_NO":999,"REV_AT_EPOCH":38893,"BSTAR":5.7839782e-5,"MEAN_MOTION_DOT":7.7e-7,"MEAN_MOTION_DDOT":0},{"OBJECT_NAME":"OKEAN-O","OBJECT_ID":"1999-039A","EPOCH":"2026-03-15T01:25:34.426272","MEAN_MOTION":14.80345334,"ECCENTRICITY":0.00010875,"INCLINATION":97.943,"RA_OF_ASC_NODE":133.896,"ARG_OF_PERICENTER":72.1947,"MEAN_ANOMALY":287.9384,"EPHEMERIS_TYPE":0,"CLASSIFICATION_TYPE":"U","NORAD_CAT_ID":25860,"ELEMENT_SET_NO":999,"REV_AT_EPOCH":43518,"BSTAR":0.0001108384,"MEAN_MOTION_DOT":7.93e-6,"MEAN_MOTION_DDOT":0},{"OBJECT_NAME":"SL-16 R/B","OBJECT_ID":"1999-039B","EPOCH":"2026-03-15T04:03:47.022336","MEAN_MOTION":14.81739751,"ECCENTRICITY":0.00136664,"INCLINATION":97.9953,"RA_OF_ASC_NODE":133.2576,"ARG_OF_PERICENTER":236.6709,"MEAN_ANOMALY":123.3196,"EPHEMERIS_TYPE":0,"CLASSIFICATION_TYPE":"U","NORAD_CAT_ID":25861,"ELEMENT_SET_NO":999,"REV_AT_EPOCH":43767,"BSTAR":8.0993064e-5,"MEAN_MOTION_DOT":5.85e-6,"MEAN_MOTION_DDOT":0},{"OBJECT_NAME":"DELTA 2 R/B","OBJECT_ID":"1999-041E","EPOCH":"2026-03-15T05:55:16.797216","MEAN_MOTION":14.11855322,"ECCENTRICITY":0.05025185,"INCLINATION":51.7617,"RA_OF_ASC_NODE":279.0834,"ARG_OF_PERICENTER":4.8245,"MEAN_ANOMALY":355.7277,"EPHEMERIS_TYPE":0,"CLASSIFICATION_TYPE":"U","NORAD_CAT_ID":25876,"ELEMENT_SET_NO":999,"REV_AT_EPOCH":36381,"BSTAR":0.00023198759,"MEAN_MOTION_DOT":1.203e-5,"MEAN_MOTION_DDOT":0}]
